[
    {
        "Altitude(m)": 612502.211473293,
        "Argument of Periapsis(deg)": 0.0,
        "Eccentricity": 0.0,
        "Inclination(deg)": 60.0,
        "Latitude(deg)": -28.136027713715258,
        "Longitude(deg)": 172.1481930298467,
        "Mean Anomaly(deg)": -32.72730000000001,
        "RAAN(deg)": 290.0,
        "Satellite Name": "Test1 1296",
        "Satellite Number": 1296,
        "Semi-Major Axis(m)": 6980739.136638005,
        "Time(s)": 0
    },
    {
        "Altitude(m)": 612308.6593570462,
        "Argument of Periapsis(deg)": 0.00010418945913296404,
        "Eccentricity": 0.0,
        "Inclination(deg)": 60.0,
        "Latitude(deg)": -27.623083679003972,
        "Longitude(deg)": 172.5016685621422,
        "Mean Anomaly(deg)": -32.10719385453816,
        "RAAN(deg)": 289.99957995086027,
        "Satellite Name": "Test1 1296",
        "Satellite Number": 1296,
        "Semi-Major Axis(m)": 6980739.136638005,
        "Time(s)": 10
    }
]